NORAD_CAT_ID,OBJECT_NAME,OBJECT_TYPE,EPOCH,MEAN_MOTION,ECCENTRICITY,INCLINATION,RA_OF_ASC_NODE,ARG_OF_PERICENTER,MEAN_ANOMALY,BSTAR,MEAN_MOTION_DOT,MEAN_MOTION_DDOT,TLE_LINE0,TLE_LINE1,TLE_LINE2,SEMIMAJOR_AXIS,PERIOD,APOGEE,PERIGEE,DECAYED
51853.0,STARLINK-3539,PAYLOAD,2023-10-19 02:50:02,15.10497039,0.0001771,53.2168,335.9904,68.9649,291.1533,1.8734e-05,1.9e-07,0.0,0 STARLINK-3539,1 51853U 22022B   23292.11808856  .00000019  00000-0  18734-4 0  9992,2 51853  53.2168 335.9904 0001771  68.9649 291.1533 15.10497039 91238,6912.82,95.333,535.909,533.461,0.0
51853.0,STARLINK-3539,PAYLOAD,2023-10-19 10:46:27,15.10498144,0.0001781,53.2175,334.4983,72.9189,287.1999,5.6924e-05,6.55e-06,0.0,0 STARLINK-3539,1 51853U 22022B   23292.44892536  .00000655  00000-0  56924-4 0  9995,2 51853  53.2175 334.4983 0001781  72.9189 287.1999 15.10498144 91286,6912.817,95.333,535.913,533.451,0.0
51853.0,STARLINK-3539,PAYLOAD,2023-10-19 20:18:08,15.10494134,0.0001615,53.2172,332.7124,83.3143,276.8034,-7.0065e-05,-1.46e-05,0.0,0 STARLINK-3539,1 51853U 22022B   23292.84593240 -.00001460  00000-0 -70065-4 0  9998,2 51853  53.2172 332.7124 0001615  83.3143 276.8034 15.10494134 91340,6912.829,95.333,535.81,533.578,0.0
51853.0,STARLINK-3539,PAYLOAD,2023-10-20 09:00:24,15.1048219,0.0001794,53.2171,330.325,86.6708,273.449,-6.335e-05,-1.347e-05,0.0,0 STARLINK-3539,1 51853U 22022B   23293.37528189 -.00001347  00000-0 -63350-4 0  9990,2 51853  53.2171 330.3250 0001794  86.6708 273.4490 15.10482190 91421,6912.865,95.334,535.971,533.49,0.0
51853.0,STARLINK-3539,PAYLOAD,2023-10-21 02:28:30,15.10475529,0.0001742,53.2163,327.0504,90.5931,269.5262,-2.5429e-05,-7.16e-06,0.0,0 STARLINK-3539,1 51853U 22022B   23294.10313652 -.00000716  00000-0 -25429-4 0  9993,2 51853  53.2163 327.0504 0001742  90.5931 269.5262 15.10475529 91535,6912.886,95.334,535.955,533.547,0.0
51853.0,STARLINK-3539,PAYLOAD,2023-10-21 08:49:38,15.10483441,0.0001612,53.2167,325.8583,97.0637,263.054,1.2825e-05,-7.9e-07,0.0,0 STARLINK-3539,1 51853U 22022B   23294.36780515 -.00000079  00000-0  12825-4 0  9994,2 51853  53.2167 325.8583 0001612  97.0637 263.0540 15.10483441 91577,6912.862,95.334,535.841,533.612,0.0
51853.0,STARLINK-3539,PAYLOAD,2023-10-22 08:38:52,15.10478169,0.0001866,53.2168,321.3943,82.4021,277.7183,0.00012255,1.748e-05,0.0,0 STARLINK-3539,1 51853U 22022B   23295.36032965  .00001748  00000-0  12255-3 0  9993,2 51853  53.2168 321.3943 0001866  82.4021 277.7183 15.10478169 91728,6912.878,95.334,536.033,533.453,0.0
51853.0,STARLINK-3539,PAYLOAD,2023-10-23 08:28:07,15.10472981,0.0001858,53.217,316.9234,87.745,272.3755,3.1461e-05,2.31e-06,0.0,0 STARLINK-3539,1 51853U 22022B   23296.35286098  .00000231  00000-0  31461-4 0  9998,2 51853  53.2170 316.9234 0001858  87.7450 272.3755 15.10472981 91877,6912.894,95.334,536.043,533.474,0.0
51853.0,STARLINK-3539,PAYLOAD,2023-10-23 17:59:48,15.10471974,0.0001828,53.2173,315.1377,87.1166,273.0037,4.2063e-05,4.07e-06,0.0,0 STARLINK-3539,1 51853U 22022B   23296.74987146  .00000407  00000-0  42063-4 0  9998,2 51853  53.2173 315.1377 0001828  87.1166 273.0037 15.10471974 91933,6912.897,95.334,536.025,533.498,0.0
51853.0,STARLINK-3539,PAYLOAD,2023-10-24 08:17:20,15.10483217,0.0001764,53.217,312.4585,85.1229,274.9965,7.6281e-05,9.78e-06,0.0,0 STARLINK-3539,1 51853U 22022B   23297.34537834  .00000978  00000-0  76281-4 0  9992,2 51853  53.2170 312.4585 0001764  85.1229 274.9965 15.10483217 92022,6912.862,95.334,535.947,533.508,0.0
51853.0,STARLINK-3539,PAYLOAD,2023-10-25 06:31:18,15.10477427,0.0001769,53.2173,308.2898,93.0478,267.0717,0.00011112,1.558e-05,0.0,0 STARLINK-3539,1 51853U 22022B   23298.27173642  .00001558  00000-0  11112-3 0  9994,2 51853  53.2173 308.2898 0001769  93.0478 267.0717 15.10477427 92163,6912.88,95.334,535.968,533.522,0.0
51853.0,STARLINK-3539,PAYLOAD,2023-10-26 04:45:15,15.10475517,0.0001946,53.2175,304.1199,88.62,271.5015,2.5853e-05,1.38e-06,0.0,0 STARLINK-3539,1 51853U 22022B   23299.19809518  .00000138  00000-0  25853-4 0  9995,2 51853  53.2175 304.1199 0001946  88.6200 271.5015 15.10475517 92309,6912.886,95.334,536.096,533.406,0.0
51853.0,STARLINK-3539,PAYLOAD,2023-10-26 09:31:06,15.10478392,0.00019,53.2175,303.2251,89.4236,270.6974,1.029e-05,-1.22e-06,0.0,0 STARLINK-3539,1 51853U 22022B   23299.39659729 -.00000122  00000-0  10290-4 0  9997,2 51853  53.2175 303.2251 0001900  89.4236 270.6974 15.10478392 92337,6912.877,95.334,536.055,533.429,0.0
51853.0,STARLINK-3539,PAYLOAD,2023-10-26 17:27:30,15.10474887,0.000199,53.2177,301.7362,90.6631,269.459,0.00012806,1.84e-05,0.0,0 STARLINK-3539,1 51853U 22022B   23299.72743789  .00001840  00000-0  12806-3 0  9995,2 51853  53.2177 301.7362 0001990  90.6631 269.4590 15.10474887 92387,6912.888,95.334,536.128,533.377,0.0
51853.0,STARLINK-3539,PAYLOAD,2023-10-27 04:34:28,15.10480853,0.0001786,53.2174,299.6521,90.7012,269.4186,0.00011842,1.679e-05,0.0,0 STARLINK-3539,1 51853U 22022B   23300.19061050  .00001679  00000-0  11842-3 0  9992,2 51853  53.2174 299.6521 0001786  90.7012 269.4186 15.10480853 92452,6912.869,95.334,535.969,533.5,0.0
51853.0,STARLINK-3539,PAYLOAD,2023-10-27 09:20:18,15.10489521,0.0001968,53.2174,298.7581,95.5295,264.5922,0.0001366,1.983e-05,0.0,0 STARLINK-3539,1 51853U 22022B   23300.38910868  .00001983  00000-0  13660-3 0  9991,2 51853  53.2174 298.7581 0001968  95.5295 264.5922 15.10489521 92484,6912.843,95.333,536.068,533.348,0.0
51853.0,STARLINK-3539,PAYLOAD,2023-10-27 23:37:52,15.1047073,0.0001781,53.2175,296.0775,81.4359,278.6835,5.6904e-05,6.55e-06,0.0,0 STARLINK-3539,1 51853U 22022B   23300.98463753  .00000655  00000-0  56904-4 0  9997,2 51853  53.2175 296.0775 0001781  81.4359 278.6835 15.10470730 92570,6912.9,95.335,535.997,533.534,0.0
51853.0,STARLINK-3539,PAYLOAD,2023-10-28 09:09:33,15.10477287,0.0001778,53.2154,294.2909,85.7577,274.3619,8.2353e-05,1.078e-05,0.0,0 STARLINK-3539,1 51853U 22022B   23301.38164191  .00001078  00000-0  82353-4 0  9993,2 51853  53.2154 294.2909 0001778  85.7577 274.3619 15.10477287 92635,6912.88,95.334,535.974,533.516,0.0
51853.0,STARLINK-3539,PAYLOAD,2023-10-28 17:05:58,15.10487526,0.0001796,53.2156,292.804,83.598,276.5217,0.0002261,3.474e-05,0.0,0 STARLINK-3539,1 51853U 22022B   23301.71247808  .00003474  00000-0  22610-3 0  9998,2 51853  53.2156 292.8040 0001796  83.5980 276.5217 15.10487526 92681,6912.849,95.333,535.956,533.473,0.0
51853.0,STARLINK-3539,PAYLOAD,2023-10-29 05:48:19,15.10358926,0.0002561,53.2167,290.4218,90.3851,269.7436,-0.0018769,-0.00031304,0.0,0 STARLINK-3539,1 51853U 22022B   23302.24188693 -.00031304  00000-0 -18769-2 0  9997,2 51853  53.2167 290.4218 0002561  90.3851 269.7436 15.10358926 92765,6913.242,95.342,536.877,533.336,0.0
51853.0,STARLINK-3539,PAYLOAD,2023-10-29 13:44:54,15.10160717,0.0001811,53.2156,288.9308,80.2499,279.8698,-0.0046336,-0.00075957,0.0,0 STARLINK-3539,1 51853U 22022B   23302.57285181 -.00075957  00000-0 -46336-2 0  9996,2 51853  53.2156 288.9308 0001811  80.2499 279.8698 15.10160717 92815,6913.846,95.354,536.964,534.459,0.0
51853.0,STARLINK-3539,PAYLOAD,2023-10-29 16:55:35,15.10026529,0.0001609,53.2163,288.3383,58.3568,301.7582,-0.0066125,-0.00107401,0.0,0 STARLINK-3539,1 51853U 22022B   23302.70526850 -.00107401  00000-0 -66125-2 0  9990,2 51853  53.2163 288.3383 0001609  58.3568 301.7582 15.10026529 92839,6914.256,95.363,537.234,535.009,0.0
51853.0,STARLINK-3539,PAYLOAD,2023-10-29 21:41:35,15.09882189,0.0001191,53.2152,287.4452,76.2607,283.8518,-0.008228,-0.00132572,0.0,0 STARLINK-3539,1 51853U 22022B   23302.90388776 -.00132572  00000-0 -82280-2 0  9992,2 51853  53.2152 287.4452 0001191  76.2607 283.8518 15.09882189 92865,6914.697,95.372,537.385,535.738,0.0
51853.0,STARLINK-3539,PAYLOAD,2023-10-30 04:02:57,15.09559162,0.0001851,53.215,286.2543,50.9885,309.1272,-0.014007,-0.00220777,0.0,0 STARLINK-3539,1 51853U 22022B   23303.16872198 -.00220777  00000-0 -14007-1 0  9993,2 51853  53.2150 286.2543 0001851  50.9885 309.1272 15.09559162 92907,6915.683,95.392,538.828,536.268,0.0
51853.0,STARLINK-3539,PAYLOAD,2023-10-30 05:38:19,15.09440762,0.0002797,53.215,285.9568,36.8041,323.3143,-0.013985,-0.00219766,0.0,0 STARLINK-3539,1 51853U 22022B   23303.23494278 -.00219766  00000-0 -13985-1 0  9990,2 51853  53.2150 285.9568 0002797  36.8041 323.3143 15.09440762 92918,6916.045,95.4,539.844,535.975,0.0
51853.0,STARLINK-3539,PAYLOAD,2023-10-30 22:00:00,15.08805362,0.0001488,53.2156,282.8947,85.5134,19.8619,0.0030556,0.00048631,0.0,0 STARLINK-3539,1 51853U 22022B   23303.91667824  .00048631  00000-0  30556-2 0  9997,2 51853  53.2156 282.8947 0001488  85.5134  19.8619 15.08805362 93018,6917.986,95.44,540.881,538.822,0.0
51853.0,STARLINK-3539,PAYLOAD,2023-10-31 14:00:01,15.08851328,0.0001449,53.2156,279.9031,82.1986,46.3356,-0.00052378,-8.617e-05,0.0,0 STARLINK-3539,1 51853U 22022B   23304.58334491 -.00008617  00000-0 -52378-3 0  9991,2 51853  53.2156 279.9031 0001449  82.1986  46.3356 15.08851328 93111,6917.846,95.437,540.713,538.708,0.0
51853.0,STARLINK-3539,PAYLOAD,2023-10-31 22:00:01,15.08850156,0.0001496,53.2159,278.4056,93.2387,46.9618,0.002627,0.00041781,0.0,0 STARLINK-3539,1 51853U 22022B   23304.91668981  .00041781  00000-0  26270-2 0  9990,2 51853  53.2159 278.4056 0001496  93.2387  46.9618 15.08850156  5876,6917.849,95.437,540.749,538.679,0.0
51853.0,STARLINK-3539,PAYLOAD,2023-11-01 14:00:01,15.08827311,0.0001462,53.2155,275.4138,100.254,63.1732,-0.00037526,-6.253e-05,0.0,0 STARLINK-3539,1 51853U 22022B   23305.58335648 -.00006253  00000-0 -37526-3 0  9999,2 51853  53.2155 275.4138 0001462 100.2540  63.1732 15.08827311 93268,6917.919,95.438,540.796,538.773,0.0
51853.0,STARLINK-3539,PAYLOAD,2023-11-01 22:00:00,15.08829697,0.000156,53.2158,273.9168,108.1673,66.7697,0.0025027,0.00039756,0.0,0 STARLINK-3539,1 51853U 22022B   23305.91667824  .00039756  00000-0  25027-2 0  9994,2 51853  53.2158 273.9168 0001560 108.1673  66.7697 15.08829697  5812,6917.912,95.438,540.856,538.698,0.0
